[{"OBJECT_NAME":"NINGXIA-1 7","OBJECT_ID":"2021-064B","EPOCH":"2026-03-09T23:03:16.134624","MEAN_MOTION":14.08535138,"ECCENTRICITY":0.00060368,"INCLINATION":45.0039,"RA_OF_ASC_NODE":315.6009,"ARG_OF_PERICENTER":124.1771,"MEAN_ANOMALY":235.9639,"EPHEMERIS_TYPE":0,"CLASSIFICATION_TYPE":"U","NORAD_CAT_ID":49019,"ELEMENT_SET_NO":999,"REV_AT_EPOCH":24025,"BSTAR":0.00016183554,"MEAN_MOTION_DOT":1.48e-6,"MEAN_MOTION_DDOT":0},{"OBJECT_NAME":"SL-16 DEB","OBJECT_ID":"1992-093AP","EPOCH":"2026-03-09T23:01:21.206208","MEAN_MOTION":14.06246637,"ECCENTRICITY":0.00707187,"INCLINATION":70.9079,"RA_OF_ASC_NODE":271.8861,"ARG_OF_PERICENTER":228.9292,"MEAN_ANOMALY":242.0617,"EPHEMERIS_TYPE":0,"CLASSIFICATION_TYPE":"U","NORAD_CAT_ID":22350,"ELEMENT_SET_NO":999,"REV_AT_EPOCH":70197,"BSTAR":0.00012838285,"MEAN_MOTION_DOT":1.69e-6,"MEAN_MOTION_DDOT":0}]
